STARLINK-32108          
1 59682U 24086A   26068.05937325  .00000536  00000+0  29013-4 0  9998
2 59682  43.0039  67.0607 0001057 271.5921  88.4809 15.27573212103968
PHISAT 2                
1 60470U 24149C   26068.78834181  .00008925  00000+0  31421-3 0  9996
2 60470  97.3806 148.6498 0001175 168.6230 191.5037 15.29548631 86792
